{
  "type": "FeatureCollection",
  "features": [
    {
      "type": "Feature",
      "properties": {
        "norad_id": 40128,
        "name": "GSAT0201 (GALILEO 5)",
        "group": "gnss",
        "lat": 8.906573856950745,
        "lon": 93.33825859584209,
        "alt_km": 16991.46911062794,
        "timestamp": "2025-12-10T11:33:53.628306+00:00",
        "meta_object_name": "GSAT0201 (GALILEO 5)",
        "meta_object_id": "2014-050A",
        "meta_epoch": "2025-12-07T12:54:32.900256",
        "meta_mean_motion": 1.85519488,
        "meta_eccentricity": 0.16474216,
        "meta_inclination": 49.0828,
        "meta_ra_of_asc_node": 281.2757,
        "meta_arg_of_pericenter": 172.085,
        "meta_mean_anomaly": 190.9173,
        "meta_ephemeris_type": 0,
        "meta_classification_type": "U",
        "meta_norad_cat_id": 40128,
        "meta_element_set_no": 999,
        "meta_rev_at_epoch": 7476,
        "meta_bstar": 0,
        "meta_mean_motion_dot": -5.9e-07,
        "meta_mean_motion_ddot": 0,
        "tle_line1": "1 40128U 14050A   25341.53788079 -.00000059  00000+0  00000+0 0  9990",
        "tle_line2": "2 40128  49.0828 281.2757 1647421 172.0850 190.9173  1.85519488 74761"
      },
      "geometry": {
        "type": "Point",
        "coordinates": [
          93.33825859584209,
          8.906573856950745
        ]
      }
    },
    {
      "type": "Feature",
      "properties": {
        "norad_id": 40129,
        "name": "GSAT0202 (GALILEO 6)",
        "group": "gnss",
        "lat": -2.644508666311371,
        "lon": -82.06702919383446,
        "alt_km": 26203.529334722112,
        "timestamp": "2025-12-10T11:33:53.628317+00:00",
        "meta_object_name": "GSAT0202 (GALILEO 6)",
        "meta_object_id": "2014-050B",
        "meta_epoch": "2025-12-08T20:55:50.636640",
        "meta_mean_motion": 1.85520286,
        "meta_eccentricity": 0.16482545,
        "meta_inclination": 49.097,
        "meta_ra_of_asc_node": 280.3049,
        "meta_arg_of_pericenter": 172.8865,
        "meta_mean_anomaly": 189.8198,
        "meta_ephemeris_type": 0,
        "meta_classification_type": "U",
        "meta_norad_cat_id": 40129,
        "meta_element_set_no": 999,
        "meta_rev_at_epoch": 7695,
        "meta_bstar": 0,
        "meta_mean_motion_dot": -6.8e-07,
        "meta_mean_motion_ddot": 0,
        "tle_line1": "1 40129U 14050B   25342.87211385 -.00000068  00000+0  00000+0 0  9990",
        "tle_line2": "2 40129  49.0970 280.3049 1648254 172.8865 189.8198  1.85520286 76958"
      },
      "geometry": {
        "type": "Point",
        "coordinates": [
          -82.06702919383446,
          -2.644508666311371
        ]
      }
    },
    {
      "type": "Feature",
      "properties": {
        "norad_id": 40269,
        "name": "IRNSS-1C",
        "group": "gnss",
        "lat": -5.381558257788066,
        "lon": -24.46899209793944,
        "alt_km": 35824.47647409243,
        "timestamp": "2025-12-10T11:33:53.628328+00:00",
        "meta_object_name": "IRNSS-1C",
        "meta_object_id": "2014-061A",
        "meta_epoch": "2025-12-09T22:01:51.672288",
        "meta_mean_motion": 1.00268182,
        "meta_eccentricity": 0.0017751,
        "meta_inclination": 6.0338,
        "meta_ra_of_asc_node": 92.6789,
        "meta_arg_of_pericenter": 2.3828,
        "meta_mean_anomaly": 37.2139,
        "meta_ephemeris_type": 0,
        "meta_classification_type": "U",
        "meta_norad_cat_id": 40269,
        "meta_element_set_no": 999,
        "meta_rev_at_epoch": 4079,
        "meta_bstar": 0,
        "meta_mean_motion_dot": -1.57e-06,
        "meta_mean_motion_ddot": 0,
        "tle_line1": "1 40269U 14061A   25343.91795917 -.00000157  00000+0  00000+0 0  9990",
        "tle_line2": "2 40269   6.0338  92.6789 0017751   2.3828  37.2139  1.00268182 40791"
      },
      "geometry": {
        "type": "Point",
        "coordinates": [
          -24.46899209793944,
          -5.381558257788066
        ]
      }
    },
    {
      "type": "Feature",
      "properties": {
        "norad_id": 40294,
        "name": "GPS BIIF-8  (PRN 03)",
        "group": "gnss",
        "lat": 10.273819633068424,
        "lon": 45.04535792943129,
        "alt_km": 20092.0942641247,
        "timestamp": "2025-12-10T11:33:53.628340+00:00",
        "meta_object_name": "GPS BIIF-8  (PRN 03)",
        "meta_object_id": "2014-068A",
        "meta_epoch": "2025-12-09T11:13:35.595840",
        "meta_mean_motion": 2.00564545,
        "meta_eccentricity": 0.00607875,
        "meta_inclination": 56.8554,
        "meta_ra_of_asc_node": 38.2726,
        "meta_arg_of_pericenter": 69.25,
        "meta_mean_anomaly": 291.455,
        "meta_ephemeris_type": 0,
        "meta_classification_type": "U",
        "meta_norad_cat_id": 40294,
        "meta_element_set_no": 999,
        "meta_rev_at_epoch": 8140,
        "meta_bstar": 0,
        "meta_mean_motion_dot": -8.3e-07,
        "meta_mean_motion_ddot": 0,
        "tle_line1": "1 40294U 14068A   25343.46777310 -.00000083  00000+0  00000+0 0  9990",
        "tle_line2": "2 40294  56.8554  38.2726 0060787  69.2500 291.4550  2.00564545 81402"
      },
      "geometry": {
        "type": "Point",
        "coordinates": [
          45.04535792943129,
          10.273819633068424
        ]
      }
    },
    {
      "type": "Feature",
      "properties": {
        "norad_id": 40315,
        "name": "COSMOS 2501 (702K)",
        "group": "gnss",
        "lat": -38.91384911621199,
        "lon": 40.53370485673209,
        "alt_km": 19086.490461768095,
        "timestamp": "2025-12-10T11:33:53.628350+00:00",
        "meta_object_name": "COSMOS 2501 (702K)",
        "meta_object_id": "2014-075A",
        "meta_epoch": "2025-12-07T20:13:51.362112",
        "meta_mean_motion": 2.13101338,
        "meta_eccentricity": 0.00201356,
        "meta_inclination": 63.6139,
        "meta_ra_of_asc_node": 196.9947,
        "meta_arg_of_pericenter": 204.4913,
        "meta_mean_anomaly": 155.4908,
        "meta_ephemeris_type": 0,
        "meta_classification_type": "U",
        "meta_norad_cat_id": 40315,
        "meta_element_set_no": 999,
        "meta_rev_at_epoch": 8577,
        "meta_bstar": 0,
        "meta_mean_motion_dot": 5.4e-07,
        "meta_mean_motion_ddot": 0,
        "tle_line1": "1 40315U 14075A   25341.84295558  .00000054  00000+0  00000+0 0  9998",
        "tle_line2": "2 40315  63.6139 196.9947 0020135 204.4913 155.4908  2.13101338 85773"
      },
      "geometry": {
        "type": "Point",
        "coordinates": [
          40.53370485673209,
          -38.91384911621199
        ]
      }
    },
    {
      "type": "Feature",
      "properties": {
        "norad_id": 40534,
        "name": "GPS BIIF-9  (PRN 26)",
        "group": "gnss",
        "lat": -52.436044394235786,
        "lon": 135.34311200004015,
        "alt_km": 20329.332822536726,
        "timestamp": "2025-12-10T11:33:53.628361+00:00",
        "meta_object_name": "GPS BIIF-9  (PRN 26)",
        "meta_object_id": "2015-013A",
        "meta_epoch": "2025-12-09T02:22:50.145600",
        "meta_mean_motion": 2.00562736,
        "meta_eccentricity": 0.0106899,
        "meta_inclination": 53.1983,
        "meta_ra_of_asc_node": 212.041,
        "meta_arg_of_pericenter": 38.3936,
        "meta_mean_anomaly": 322.4441,
        "meta_ephemeris_type": 0,
        "meta_classification_type": "U",
        "meta_norad_cat_id": 40534,
        "meta_element_set_no": 999,
        "meta_rev_at_epoch": 7801,
        "meta_bstar": 0,
        "meta_mean_motion_dot": 1.8e-07,
        "meta_mean_motion_ddot": 0,
        "tle_line1": "1 40534U 15013A   25343.09919150  .00000018  00000+0  00000+0 0  9994",
        "tle_line2": "2 40534  53.1983 212.0410 0106899  38.3936 322.4441  2.00562736 78019"
      },
      "geometry": {
        "type": "Point",
        "coordinates": [
          135.34311200004015,
          -52.436044394235786
        ]
      }
    },
    {
      "type": "Feature",
      "properties": {
        "norad_id": 40544,
        "name": "GSAT0203 (GALILEO 7)",
        "group": "gnss",
        "lat": 56.79759195116483,
        "lon": 79.5302104503914,
        "alt_km": 23234.83785396552,
        "timestamp": "2025-12-10T11:33:53.628374+00:00",
        "meta_object_name": "GSAT0203 (GALILEO 7)",
        "meta_object_id": "2015-017A",
        "meta_epoch": "2025-12-07T23:40:17.785344",
        "meta_mean_motion": 1.70475803,
        "meta_eccentricity": 0.00065197,
        "meta_inclination": 56.8473,
        "meta_ra_of_asc_node": 346.8097,
        "meta_arg_of_pericenter": 270.7442,
        "meta_mean_anomaly": 89.1988,
        "meta_ephemeris_type": 0,
        "meta_classification_type": "U",
        "meta_norad_cat_id": 40544,
        "meta_element_set_no": 999,
        "meta_rev_at_epoch": 6594,
        "meta_bstar": 0,
        "meta_mean_motion_dot": -8.6e-07,
        "meta_mean_motion_ddot": 0,
        "tle_line1": "1 40544U 15017A   25341.98631696 -.00000086  00000+0  00000+0 0  9997",
        "tle_line2": "2 40544  56.8473 346.8097 0006519 270.7442  89.1988  1.70475803 65948"
      },
      "geometry": {
        "type": "Point",
        "coordinates": [
          79.5302104503914,
          56.79759195116483
        ]
      }
    }
  ]
}